[
  {
    "id": "875",
    "name": "Lamp",
    "category": "Kitchen",
    "condition": "New",
    "posted_by": "26872",
    "zipcode": "94805",
    "description": "A charming lamp that's been lighting up my reading nook. It casts a soft, inviting glow.",
    "image": "https://images.unsplash.com/photo-1524758631624-e2822e304c36"
  },
  {
    "id": "876",
    "name": "Board Game Set",
    "category": "Toys",
    "condition": "Used",
    "posted_by": "19284",
    "zipcode": "94016",
    "description": "A family board game set thatâ€™s brought joy to many game nights.",
    "image": "https://images.unsplash.com/photo-1602080757839-2e8e7a0675b0"
  },
  {
    "id": "877",
    "name": "Coffee Maker",
    "category": "Appliances",
    "condition": "New",
    "posted_by": "18375",
    "zipcode": "94110",
    "description": "A compact coffee maker perfect for small kitchens.",
    "image": "https://images.unsplash.com/photo-1586201375761-83865001e17d"
  },
  {
    "id": "878",
    "name": "Desk Chair",
    "category": "Furniture",
    "condition": "Used",
    "posted_by": "26544",
    "zipcode": "94536",
    "description": "Comfortable ergonomic chair with adjustable height and tilt.",
    "image": "https://images.unsplash.com/photo-1588854337115-1c7e3c2a57a2"
  },
  {
    "id": "879",
    "name": "Guitar",
    "category": "Music",
    "condition": "Used",
    "posted_by": "18592",
    "zipcode": "95014",
    "description": "A beautiful acoustic guitar ready for someone new to strum.",
    "image": "https://images.unsplash.com/photo-1511376777868-611b54f68947"
  },
  {
    "id": "880",
    "name": "Yoga Mat",
    "category": "Sports",
    "condition": "New",
    "posted_by": "26493",
    "zipcode": "94568",
    "description": "Brand new yoga mat with non-slip surface and eco-friendly material.",
    "image": "https://images.unsplash.com/photo-1605296867304-46d5465a13f1"
  },
  {
    "id": "881",
    "name": "Cookware Set",
    "category": "Kitchen",
    "condition": "New",
    "posted_by": "27301",
    "zipcode": "94086",
    "description": "High-quality non-stick cookware set for new homes.",
    "image": "https://images.unsplash.com/photo-1601050690597-1a7c34e1c237"
  },
  {
    "id": "882",
    "name": "Baby Stroller",
    "category": "Baby",
    "condition": "Used",
    "posted_by": "27420",
    "zipcode": "94103",
    "description": "Gently used stroller, lightweight and easy to fold.",
    "image": "https://images.unsplash.com/photo-1613490493576-7fde63acd811"
  },
  {
    "id": "883",
    "name": "Bookshelf",
    "category": "Furniture",
    "condition": "Used",
    "posted_by": "19983",
    "zipcode": "94538",
    "description": "Sturdy 5-shelf wooden bookshelf with some scratches.",
    "image": "https://images.unsplash.com/photo-1616627989256-7b9b64e91851"
  },
  {
    "id": "884",
    "name": "Tablet",
    "category": "Electronics",
    "condition": "Used",
    "posted_by": "20682",
    "zipcode": "94022",
    "description": "8-inch Android tablet in excellent condition.",
    "image": "https://images.unsplash.com/photo-1611078489935-0cb964de46d4"
  },
  {
    "id": "885",
    "name": "Winter Coat",
    "category": "Clothing",
    "condition": "New",
    "posted_by": "29013",
    "zipcode": "94109",
    "description": "Warm and stylish winter coat with tags attached.",
    "image": "https://images.unsplash.com/photo-1576566588028-4147f3840d9a"
  },
  {
    "id": "886",
    "name": "Tent",
    "category": "Outdoor",
    "condition": "Used",
    "posted_by": "18324",
    "zipcode": "94040",
    "description": "2-person camping tent, waterproof and easy to setup.",
    "image": "https://images.unsplash.com/photo-1507525428034-b723cf961d3e"
  },
  {
    "id": "887",
    "name": "Bicycle",
    "category": "Sports",
    "condition": "Used",
    "posted_by": "20743",
    "zipcode": "94025",
    "description": "Hybrid city bike in good condition.",
    "image": "https://images.unsplash.com/photo-1508606572321-901ea443707f"
  },
  {
    "id": "888",
    "name": "Vacuum Cleaner",
    "category": "Appliances",
    "condition": "New",
    "posted_by": "20911",
    "zipcode": "95008",
    "description": "Cordless vacuum cleaner, powerful suction, rechargeable.",
    "image": "https://images.unsplash.com/photo-1616627457938-bf25df4c2d6a"
  },
  {
    "id": "889",
    "name": "Sofa",
    "category": "Furniture",
    "condition": "Used",
    "posted_by": "21152",
    "zipcode": "94536",
    "description": "Comfy 3-seater sofa with removable covers.",
    "image": "https://images.unsplash.com/photo-1616627457938-4a03d760e416"
  },
  {
    "id": "890",
    "name": "Microwave Oven",
    "category": "Appliances",
    "condition": "Used",
    "posted_by": "21894",
    "zipcode": "94539",
    "description": "Compact microwave oven in great condition.",
    "image": "https://images.unsplash.com/photo-1586201375754-1965a7e79e98"
  }
]
